[{"OBJECT_NAME":"STARLINK-36470","OBJECT_ID":"2026-002Q","EPOCH":"2026-03-09T01:54:12.944736","MEAN_MOTION":15.27587547,"ECCENTRICITY":0.00018639,"INCLINATION":43.0005,"RA_OF_ASC_NODE":328.875,"ARG_OF_PERICENTER":264.6506,"MEAN_ANOMALY":95.4133,"EPHEMERIS_TYPE":0,"CLASSIFICATION_TYPE":"U","NORAD_CAT_ID":67319,"ELEMENT_SET_NO":999,"REV_AT_EPOCH":1104,"BSTAR":0.0013043973,"MEAN_MOTION_DOT":0.00035815,"MEAN_MOTION_DDOT":0},{"OBJECT_NAME":"COSMOS 2251 DEB","OBJECT_ID":"1993-036SV","EPOCH":"2026-03-09T21:55:42.811680","MEAN_MOTION":15.15006345,"ECCENTRICITY":0.00579573,"INCLINATION":74.0283,"RA_OF_ASC_NODE":1.8812,"ARG_OF_PERICENTER":55.6817,"MEAN_ANOMALY":304.9843,"EPHEMERIS_TYPE":0,"CLASSIFICATION_TYPE":"U","NORAD_CAT_ID":34452,"ELEMENT_SET_NO":999,"REV_AT_EPOCH":91981,"BSTAR":0.0011020825,"MEAN_MOTION_DOT":0.00021495,"MEAN_MOTION_DDOT":0}]
